start=new Date('2023-02-27T00:00:00.000Z').valueOf();
sats=[{"REV_AT_EPOCH":"6888","RCS_SIZE":"LARGE","SEMIMAJOR_AXIS":"6919.557","EPOCH":"2023-02-26T21:05:05.466336","REF_FRAME":"TEME","PERIAPSIS":"540.517","EPHEMERIS_TYPE":"0","PERIOD":"95.472","GP_ID":"227035471","MEAN_MOTION":"15.08291590","ECCENTRICITY":"0.00013080","COUNTRY_CODE":"US","OBJECT_NAME":"STARLINK-3271","MEAN_MOTION_DOT":"-0.00089413","RA_OF_ASC_NODE":"187.7905","SITE":"AFWTR","ELEMENT_SET_NO":"999","ARG_OF_PERICENTER":"115.1254","MEAN_ANOMALY":"244.9874","INCLINATION":"53.2154","CENTER_NAME":"EARTH","OBJECT_TYPE":"PAYLOAD","APOAPSIS":"542.327","CLASSIFICATION_TYPE":"U","DECAY_DATE":null,"LAUNCH_DATE":"2021-12-18","TLE_LINE1":"1 50167U 21125M   23057.87853549 -.00089413  00000-0 -57562-2 0  9990","FILE":"3842909","MEAN_MOTION_DDOT":"0.0000000000000","BSTAR":"-0.00575620000000","TLE_LINE2":"2 50167  53.2154 187.7905 0001308 115.1254 244.9874 15.08291590 68887","OBJECT_ID":"2021-125M","TIME_SYSTEM":"UTC","MEAN_ELEMENT_THEORY":"SGP4","NORAD_CAT_ID":"50167"},{"PERIAPSIS":"537.274","EPHEMERIS_TYPE":"0","PERIOD":"95.435","REV_AT_EPOCH":"6949","RCS_SIZE":"LARGE","SEMIMAJOR_AXIS":"6917.754","EPOCH":"2023-02-26T18:32:01.143744","REF_FRAME":"TEME","ELEMENT_SET_NO":"999","SITE":"AFWTR","RA_OF_ASC_NODE":"178.2776","ARG_OF_PERICENTER":"17.5723","INCLINATION":"53.2166","MEAN_ANOMALY":"342.5386","GP_ID":"227067054","MEAN_MOTION":"15.08881463","COUNTRY_CODE":"US","ECCENTRICITY":"0.00033900","OBJECT_NAME":"STARLINK-3296","MEAN_MOTION_DOT":"0.00037028","DECAY_DATE":null,"LAUNCH_DATE":"2021-12-18","TLE_LINE1":"1 50168U 21125N   23057.77223546  .00037028  00000-0  23296-2 0  9998","CENTER_NAME":"EARTH","OBJECT_TYPE":"PAYLOAD","APOAPSIS":"541.964","CLASSIFICATION_TYPE":"U","OBJECT_ID":"2021-125N","TIME_SYSTEM":"UTC","MEAN_ELEMENT_THEORY":"SGP4","NORAD_CAT_ID":"50168","FILE":"3843368","MEAN_MOTION_DDOT":"0.0000000000000","BSTAR":"0.00232960000000","TLE_LINE2":"2 50168  53.2166 178.2776 0003390  17.5723 342.5386 15.08881463 69496"},{"REV_AT_EPOCH":"6641","SEMIMAJOR_AXIS":"6917.740","RCS_SIZE":"LARGE","EPOCH":"2023-02-26T19:25:00.973920","REF_FRAME":"TEME","PERIAPSIS":"538.763","EPHEMERIS_TYPE":"0","PERIOD":"95.435","GP_ID":"227035470","MEAN_MOTION":"15.08885930","COUNTRY_CODE":"US","ECCENTRICITY":"0.00012170","MEAN_MOTION_DOT":"0.00029265","OBJECT_NAME":"STARLINK-3301","ARG_OF_PERICENTER":"77.7007","SITE":"AFWTR","RA_OF_ASC_NODE":"178.0958","ELEMENT_SET_NO":"999","INCLINATION":"53.2160","MEAN_ANOMALY":"282.4121","CENTER_NAME":"EARTH","OBJECT_TYPE":"PAYLOAD","APOAPSIS":"540.447","CLASSIFICATION_TYPE":"U","DECAY_DATE":null,"LAUNCH_DATE":"2021-12-18","TLE_LINE1":"1 50169U 21125P   23057.80903905  .00029265  00000-0  18469-2 0  9997","MEAN_MOTION_DDOT":"0.0000000000000","FILE":"3842909","BSTAR":"0.00184690000000","TLE_LINE2":"2 50169  53.2160 178.0958 0001217  77.7007 282.4121 15.08885930 66411","OBJECT_ID":"2021-125P","MEAN_ELEMENT_THEORY":"SGP4","TIME_SYSTEM":"UTC","NORAD_CAT_ID":"50169"},{"REF_FRAME":"TEME","EPOCH":"2023-02-26T18:21:25.637184","SEMIMAJOR_AXIS":"6917.747","RCS_SIZE":"LARGE","REV_AT_EPOCH":"6948","PERIOD":"95.435","EPHEMERIS_TYPE":"0","PERIAPSIS":"538.772","MEAN_MOTION_DOT":"0.00030740","OBJECT_NAME":"STARLINK-3245","ECCENTRICITY":"0.00012140","COUNTRY_CODE":"US","MEAN_MOTION":"15.08883642","GP_ID":"227066273","INCLINATION":"53.2140","MEAN_ANOMALY":"280.9993","ARG_OF_PERICENTER":"79.1135","SITE":"AFWTR","RA_OF_ASC_NODE":"178.3000","ELEMENT_SET_NO":"999","CLASSIFICATION_TYPE":"U","APOAPSIS":"540.452","OBJECT_TYPE":"PAYLOAD","CENTER_NAME":"EARTH","TLE_LINE1":"1 50170U 21125Q   23057.76488006  .00030740  00000-0  19388-2 0  9995","LAUNCH_DATE":"2021-12-18","DECAY_DATE":null,"BSTAR":"0.00193880000000","TLE_LINE2":"2 50170  53.2140 178.3000 0001214  79.1135 280.9993 15.08883642 69485","FILE":"3843368","MEAN_MOTION_DDOT":"0.0000000000000","NORAD_CAT_ID":"50170","TIME_SYSTEM":"UTC","MEAN_ELEMENT_THEORY":"SGP4","OBJECT_ID":"2021-125Q"},{"MEAN_MOTION_DDOT":"0.0000000000000","FILE":"3842909","BSTAR":"0.00148520000000","TLE_LINE2":"2 50171  53.2139 177.9334 0001074  78.5962 281.5150 15.08884618 69019","TIME_SYSTEM":"UTC","MEAN_ELEMENT_THEORY":"SGP4","NORAD_CAT_ID":"50171","OBJECT_ID":"2021-125R","CLASSIFICATION_TYPE":"U","APOAPSIS":"540.352","CENTER_NAME":"EARTH","OBJECT_TYPE":"PAYLOAD","TLE_LINE1":"1 50171U 21125R   23057.84583741  .00023457  00000-0  14852-2 0  9995","DECAY_DATE":null,"LAUNCH_DATE":"2021-12-18","COUNTRY_CODE":"US","ECCENTRICITY":"0.00010740","MEAN_MOTION_DOT":"0.00023457","OBJECT_NAME":"STARLINK-3286","GP_ID":"227035468","MEAN_MOTION":"15.08884618","SITE":"AFWTR","RA_OF_ASC_NODE":"177.9334","ARG_OF_PERICENTER":"78.5962","ELEMENT_SET_NO":"999","INCLINATION":"53.2139","MEAN_ANOMALY":"281.5150","EPOCH":"2023-02-26T20:18:00.352224","RCS_SIZE":"LARGE","SEMIMAJOR_AXIS":"6917.744","REF_FRAME":"TEME","REV_AT_EPOCH":"6901","PERIOD":"95.435","PERIAPSIS":"538.866","EPHEMERIS_TYPE":"0"},{"MEAN_MOTION":"15.08883507","GP_ID":"227035494","OBJECT_NAME":"STARLINK-3287","MEAN_MOTION_DOT":"0.00027975","COUNTRY_CODE":"US","ECCENTRICITY":"0.00011410","MEAN_ANOMALY":"260.7888","INCLINATION":"53.2146","ELEMENT_SET_NO":"999","SITE":"AFWTR","ARG_OF_PERICENTER":"99.3233","RA_OF_ASC_NODE":"178.0358","REV_AT_EPOCH":"6901","REF_FRAME":"TEME","RCS_SIZE":"LARGE","SEMIMAJOR_AXIS":"6917.747","EPOCH":"2023-02-26T19:46:12.600480","EPHEMERIS_TYPE":"0","PERIAPSIS":"538.823","PERIOD":"95.435","TLE_LINE2":"2 50172  53.2146 178.0358 0001141  99.3233 260.7888 15.08883507 69016","BSTAR":"0.00176670000000","FILE":"3842911","MEAN_MOTION_DDOT":"0.0000000000000","OBJECT_ID":"2021-125S","NORAD_CAT_ID":"50172","TIME_SYSTEM":"UTC","MEAN_ELEMENT_THEORY":"SGP4","OBJECT_TYPE":"PAYLOAD","CENTER_NAME":"EARTH","APOAPSIS":"540.402","CLASSIFICATION_TYPE":"U","LAUNCH_DATE":"2021-12-18","DECAY_DATE":null,"TLE_LINE1":"1 50172U 21125S   23057.82375695  .00027975  00000-0  17667-2 0  9997"},{"OBJECT_NAME":"STARLINK-3289","MEAN_MOTION_DOT":"0.00034578","ECCENTRICITY":"0.00009860","COUNTRY_CODE":"US","MEAN_MOTION":"15.08876624","GP_ID":"227067306","MEAN_ANOMALY":"269.6373","INCLINATION":"53.2144","SITE":"AFWTR","RA_OF_ASC_NODE":"169.1017","ARG_OF_PERICENTER":"90.4732","ELEMENT_SET_NO":"999","REF_FRAME":"TEME","EPOCH":"2023-02-26T14:04:28.476480","SEMIMAJOR_AXIS":"6917.768","RCS_SIZE":"LARGE","REV_AT_EPOCH":"6961","PERIOD":"95.435","EPHEMERIS_TYPE":"0","PERIAPSIS":"538.951","BSTAR":"0.00217790000000","TLE_LINE2":"2 50173  53.2144 169.1017 0000986  90.4732 269.6373 15.08876624 69615","FILE":"3843368","MEAN_MOTION_DDOT":"0.0000000000000","NORAD_CAT_ID":"50173","MEAN_ELEMENT_THEORY":"SGP4","TIME_SYSTEM":"UTC","OBJECT_ID":"2021-125T","CLASSIFICATION_TYPE":"U","APOAPSIS":"540.316","OBJECT_TYPE":"PAYLOAD","CENTER_NAME":"EARTH","TLE_LINE1":"1 50173U 21125T   23057.58644070  .00034578  00000-0  21779-2 0  9993","LAUNCH_DATE":"2021-12-18","DECAY_DATE":null},{"BSTAR":"0.00211700000000","TLE_LINE2":"2 50174  53.2149 178.3844 0001273  91.1102 269.0036 15.08888552 69534","FILE":"3843368","MEAN_MOTION_DDOT":"0.0000000000000","NORAD_CAT_ID":"50174","MEAN_ELEMENT_THEORY":"SGP4","TIME_SYSTEM":"UTC","OBJECT_ID":"2021-125U","APOAPSIS":"540.478","CLASSIFICATION_TYPE":"U","OBJECT_TYPE":"PAYLOAD","CENTER_NAME":"EARTH","TLE_LINE1":"1 50174U 21125U   23057.74647770  .00033610  00000-0  21170-2 0  9993","LAUNCH_DATE":"2021-12-18","DECAY_DATE":null,"MEAN_MOTION_DOT":"0.00033610","OBJECT_NAME":"STARLINK-3292","ECCENTRICITY":"0.00012730","COUNTRY_CODE":"US","MEAN_MOTION":"15.08888552","GP_ID":"227066774","MEAN_ANOMALY":"269.0036","INCLINATION":"53.2149","ELEMENT_SET_NO":"999","SITE":"AFWTR","ARG_OF_PERICENTER":"91.1102","RA_OF_ASC_NODE":"178.3844","REF_FRAME":"TEME","RCS_SIZE":"LARGE","SEMIMAJOR_AXIS":"6917.732","EPOCH":"2023-02-26T17:54:55.673280","REV_AT_EPOCH":"6953","PERIOD":"95.434","EPHEMERIS_TYPE":"0","PERIAPSIS":"538.716"},{"ARG_OF_PERICENTER":"92.6004","SITE":"AFWTR","ELEMENT_SET_NO":"999","RA_OF_ASC_NODE":"178.2830","MEAN_ANOMALY":"267.5134","INCLINATION":"53.2140","GP_ID":"227066805","MEAN_MOTION":"15.08884466","COUNTRY_CODE":"US","ECCENTRICITY":"0.00012800","MEAN_MOTION_DOT":"0.00032376","OBJECT_NAME":"STARLINK-3291","PERIAPSIS":"538.724","EPHEMERIS_TYPE":"0","PERIOD":"95.435","REV_AT_EPOCH":"6949","EPOCH":"2023-02-26T18:26:43.626336","SEMIMAJOR_AXIS":"6917.744","RCS_SIZE":"LARGE","REF_FRAME":"TEME","OBJECT_ID":"2021-125V","MEAN_ELEMENT_THEORY":"SGP4","TIME_SYSTEM":"UTC","NORAD_CAT_ID":"50175","MEAN_MOTION_DDOT":"0.0000000000000","FILE":"3843368","TLE_LINE2":"2 50175  53.2140 178.2830 0001280  92.6004 267.5134 15.08884466 69492","BSTAR":"0.00204050000000","DECAY_DATE":null,"LAUNCH_DATE":"2021-12-18","TLE_LINE1":"1 50175U 21125V   23057.76856049  .00032376  00000-0  20405-2 0  9995","CENTER_NAME":"EARTH","OBJECT_TYPE":"PAYLOAD","CLASSIFICATION_TYPE":"U","APOAPSIS":"540.495"},{"TLE_LINE1":"1 50176U 21125W   23057.81639691  .00022474  00000-0  14238-2 0  9999","LAUNCH_DATE":"2021-12-18","DECAY_DATE":null,"CLASSIFICATION_TYPE":"U","APOAPSIS":"540.590","OBJECT_TYPE":"PAYLOAD","CENTER_NAME":"EARTH","NORAD_CAT_ID":"50176","MEAN_ELEMENT_THEORY":"SGP4","TIME_SYSTEM":"UTC","OBJECT_ID":"2021-125W","BSTAR":"0.00142380000000","TLE_LINE2":"2 50176  53.2156 178.0681 0001432  78.2142 281.9011 15.08887658 66413","MEAN_MOTION_DDOT":"0.0000000000000","FILE":"3842911","PERIOD":"95.435","EPHEMERIS_TYPE":"0","PERIAPSIS":"538.609","REF_FRAME":"TEME","EPOCH":"2023-02-26T19:35:36.693024","SEMIMAJOR_AXIS":"6917.735","RCS_SIZE":"LARGE","REV_AT_EPOCH":"6641","MEAN_ANOMALY":"281.9011","INCLINATION":"53.2156","ELEMENT_SET_NO":"999","SITE":"AFWTR","RA_OF_ASC_NODE":"178.0681","ARG_OF_PERICENTER":"78.2142","OBJECT_NAME":"STARLINK-3293","MEAN_MOTION_DOT":"0.00022474","COUNTRY_CODE":"US","ECCENTRICITY":"0.00014320","MEAN_MOTION":"15.08887658","GP_ID":"227035496"}];
